IRIDIUM 7               
1 24793U 97020B   26028.66315545  .00000532  00000+0  17592-3 0  9992
2 24793  86.3922  82.4129 0002601  94.0417 266.1077 14.36153367504251
IRIDIUM 5               
1 24795U 97020D   26028.92387385  .00011487  00000+0  88630-3 0  9996
2 24795  86.3903 339.4207 0105542  47.5399 313.4693 14.97065562519201
IRIDIUM 4               
1 24796U 97020E   26028.64427573  .00000521  00000+0  16909-3 0  9997
2 24796  86.3915  79.1449 0002354  95.5392 264.6074 14.37060262504844
IRIDIUM 914             
1 24836U 97030A   26028.63971432  .00000589  00000+0  17687-3 0  9998
2 24836  86.3903  87.0872 0002502 131.4860 228.6555 14.41123859639591
IRIDIUM 16              
1 24841U 97030F   26028.73085012  .00000675  00000+0  21281-3 0  9996
2 24841  86.4036 110.5710 0003953  70.7407 289.4219 14.38948234499438
IRIDIUM 911             
1 24842U 97030G   26028.70885503  .00000863  00000+0  22681-3 0  9991
2 24842  86.4457 109.0991 0016130  69.6617 290.6318 14.47972519507719
IRIDIUM 17              
1 24870U 97034B   26028.85468155  .00000740  00000+0  23784-3 0  9991
2 24870  86.4002 139.9399 0002420  54.5644 305.5779 14.38083872496012
IRIDIUM 920             
1 24871U 97034C   26028.73446653  .00000673  00000+0  19983-3 0  9999
2 24871  86.3991 118.6973 0013343  63.4108 296.8457 14.41789496499074
